start=new Date('2022-05-03T00:00:00.000Z').valueOf();
sats=[{"MEAN_ANOMALY":"127.6867","LAUNCH_DATE":"2022-02-25","MEAN_ELEMENT_THEORY":"SGP4","EPHEMERIS_TYPE":"0","EPOCH":"2022-05-02T22:00:01.999584","PERIOD":"93.036","TLE_LINE2":"2 51811  53.2176 177.6761 0001658  42.7688 127.6867 15.47784875  3693","GP_ID":"202559196","SEMIMAJOR_AXIS":"6801.345","APOAPSIS":"424.337","SITE":"AFWTR","MEAN_MOTION_DOT":"-0.00718808","REV_AT_EPOCH":"369","DECAY_DATE":null,"ELEMENT_SET_NO":"999","INCLINATION":"53.2176","MEAN_MOTION":"15.47784875","RA_OF_ASC_NODE":"177.6761","RCS_SIZE":"LARGE","OBJECT_TYPE":"PAYLOAD","NORAD_CAT_ID":"51811","CLASSIFICATION_TYPE":"U","BSTAR":"-0.01472400000000","MEAN_MOTION_DDOT":"0.0000000000000","OBJECT_ID":"2022-017AV","ECCENTRICITY":"0.00016580","ARG_OF_PERICENTER":"42.7688","FILE":"3426306","COUNTRY_CODE":"US","REF_FRAME":"TEME","CENTER_NAME":"EARTH","PERIAPSIS":"422.082","TLE_LINE1":"1 51811U 22017AV  22122.91668981 -.00718808  00000-0 -14724-1 0  9998","TIME_SYSTEM":"UTC","OBJECT_NAME":"STARLINK-3569"},{"MEAN_ELEMENT_THEORY":"SGP4","EPHEMERIS_TYPE":"0","EPOCH":"2022-05-02T22:00:01.999584","MEAN_ANOMALY":"65.3652","LAUNCH_DATE":"2022-02-25","APOAPSIS":"351.921","PERIOD":"91.534","TLE_LINE2":"2 51812  53.2116 175.5890 0003133  11.4117  65.3652 15.73181252  3709","SEMIMAJOR_AXIS":"6727.949","GP_ID":"202559285","SITE":"AFWTR","MEAN_MOTION_DOT":"0.00059930","DECAY_DATE":null,"REV_AT_EPOCH":"370","ELEMENT_SET_NO":"999","MEAN_MOTION":"15.73181252","INCLINATION":"53.2116","RCS_SIZE":"LARGE","NORAD_CAT_ID":"51812","OBJECT_TYPE":"PAYLOAD","RA_OF_ASC_NODE":"175.5890","MEAN_MOTION_DDOT":"0.0000000000000","ECCENTRICITY":"0.00031330","OBJECT_ID":"2022-017AW","CLASSIFICATION_TYPE":"U","BSTAR":"0.00042865000000","FILE":"3426306","ARG_OF_PERICENTER":"11.4117","PERIAPSIS":"347.706","COUNTRY_CODE":"US","REF_FRAME":"TEME","CENTER_NAME":"EARTH","TIME_SYSTEM":"UTC","TLE_LINE1":"1 51812U 22017AW  22122.91668981  .00059930  00000-0  42865-3 0  9990","OBJECT_NAME":"STARLINK-3610"},{"RA_OF_ASC_NODE":"175.5953","RCS_SIZE":"LARGE","OBJECT_TYPE":"PAYLOAD","NORAD_CAT_ID":"51813","MEAN_MOTION_DOT":"-0.00019709","SITE":"AFWTR","DECAY_DATE":null,"REV_AT_EPOCH":"370","ELEMENT_SET_NO":"999","INCLINATION":"53.2124","MEAN_MOTION":"15.73202908","PERIOD":"91.533","TLE_LINE2":"2 51813  53.2124 175.5953 0003353  15.3126  60.1943 15.73202908  3704","GP_ID":"202559448","SEMIMAJOR_AXIS":"6727.887","APOAPSIS":"352.008","MEAN_ANOMALY":"60.1943","LAUNCH_DATE":"2022-02-25","MEAN_ELEMENT_THEORY":"SGP4","EPOCH":"2022-05-02T22:00:01.999584","EPHEMERIS_TYPE":"0","TIME_SYSTEM":"UTC","TLE_LINE1":"1 51813U 22017AX  22122.91668981 -.00019709  00000-0 -13625-3 0  9995","OBJECT_NAME":"STARLINK-3552","REF_FRAME":"TEME","COUNTRY_CODE":"US","CENTER_NAME":"EARTH","PERIAPSIS":"347.496","ARG_OF_PERICENTER":"15.3126","FILE":"3426306","CLASSIFICATION_TYPE":"U","BSTAR":"-0.00013625000000","MEAN_MOTION_DDOT":"0.0000000000000","OBJECT_ID":"2022-017AX","ECCENTRICITY":"0.00033530"},{"ARG_OF_PERICENTER":"9.6226","FILE":"3426306","CLASSIFICATION_TYPE":"U","BSTAR":"0.00041255000000","MEAN_MOTION_DDOT":"0.0000000000000","OBJECT_ID":"2022-017AY","ECCENTRICITY":"0.00034870","TIME_SYSTEM":"UTC","TLE_LINE1":"1 51814U 22017AY  22122.91668981  .00057697  00000-0  41255-3 0  9992","OBJECT_NAME":"STARLINK-3599","REF_FRAME":"TEME","COUNTRY_CODE":"US","CENTER_NAME":"EARTH","PERIAPSIS":"347.407","PERIOD":"91.533","GP_ID":"202559037","TLE_LINE2":"2 51814  53.2111 175.5838 0003487   9.6226  68.4173 15.73202559  3706","SEMIMAJOR_AXIS":"6727.888","APOAPSIS":"352.099","MEAN_ANOMALY":"68.4173","LAUNCH_DATE":"2022-02-25","MEAN_ELEMENT_THEORY":"SGP4","EPHEMERIS_TYPE":"0","EPOCH":"2022-05-02T22:00:01.999584","RA_OF_ASC_NODE":"175.5838","RCS_SIZE":"LARGE","OBJECT_TYPE":"PAYLOAD","NORAD_CAT_ID":"51814","MEAN_MOTION_DOT":"0.00057697","SITE":"AFWTR","REV_AT_EPOCH":"370","DECAY_DATE":null,"MEAN_MOTION":"15.73202559","ELEMENT_SET_NO":"999","INCLINATION":"53.2111"},{"OBJECT_NAME":"STARLINK-3604","TLE_LINE1":"1 51815U 22017AZ  22122.91668981  .00063373  00000-0  45296-3 0  9990","TIME_SYSTEM":"UTC","PERIAPSIS":"347.281","COUNTRY_CODE":"US","CENTER_NAME":"EARTH","REF_FRAME":"TEME","FILE":"3426306","ARG_OF_PERICENTER":"6.3653","OBJECT_ID":"2022-017AZ","ECCENTRICITY":"0.00038020","MEAN_MOTION_DDOT":"0.0000000000000","BSTAR":"0.00045296000000","CLASSIFICATION_TYPE":"U","NORAD_CAT_ID":"51815","OBJECT_TYPE":"PAYLOAD","RCS_SIZE":"LARGE","RA_OF_ASC_NODE":"175.5900","DECAY_DATE":null,"INCLINATION":"53.2123","REV_AT_EPOCH":"370","ELEMENT_SET_NO":"999","MEAN_MOTION":"15.73172280","SITE":"AFWTR","MEAN_MOTION_DOT":"0.00063373","APOAPSIS":"352.397","TLE_LINE2":"2 51815  53.2123 175.5900 0003802   6.3653  71.0661 15.73172280  3708","GP_ID":"202559525","SEMIMAJOR_AXIS":"6727.974","PERIOD":"91.535","EPHEMERIS_TYPE":"0","EPOCH":"2022-05-02T22:00:01.999584","MEAN_ELEMENT_THEORY":"SGP4","LAUNCH_DATE":"2022-02-25","MEAN_ANOMALY":"71.0661"},{"MEAN_MOTION_DOT":"0.00049127","SITE":"AFWTR","ELEMENT_SET_NO":"999","DECAY_DATE":null,"REV_AT_EPOCH":"370","INCLINATION":"53.2130","MEAN_MOTION":"15.73198961","RCS_SIZE":"LARGE","OBJECT_TYPE":"PAYLOAD","NORAD_CAT_ID":"51816","RA_OF_ASC_NODE":"175.5918","MEAN_ELEMENT_THEORY":"SGP4","EPHEMERIS_TYPE":"0","EPOCH":"2022-05-02T22:00:01.999584","MEAN_ANOMALY":"69.6503","LAUNCH_DATE":"2022-02-25","APOAPSIS":"352.115","PERIOD":"91.533","TLE_LINE2":"2 51816  53.2130 175.5918 0003495   9.0478  69.6503 15.73198961  3701","SEMIMAJOR_AXIS":"6727.898","GP_ID":"202558956","PERIAPSIS":"347.412","COUNTRY_CODE":"US","REF_FRAME":"TEME","CENTER_NAME":"EARTH","TLE_LINE1":"1 51816U 22017BA  22122.91668981  .00049127  00000-0  35234-3 0  9993","TIME_SYSTEM":"UTC","OBJECT_NAME":"STARLINK-3603","MEAN_MOTION_DDOT":"0.0000000000000","OBJECT_ID":"2022-017BA","ECCENTRICITY":"0.00034950","CLASSIFICATION_TYPE":"U","BSTAR":"0.00035234000000","FILE":"3426306","ARG_OF_PERICENTER":"9.0478"},{"RCS_SIZE":"LARGE","OBJECT_TYPE":"PAYLOAD","NORAD_CAT_ID":"51817","RA_OF_ASC_NODE":"173.3541","MEAN_MOTION_DOT":"-0.00019137","SITE":"AFWTR","DECAY_DATE":null,"REV_AT_EPOCH":"1165","INCLINATION":"53.2169","ELEMENT_SET_NO":"999","MEAN_MOTION":"15.76999381","APOAPSIS":"344.361","PERIOD":"91.313","SEMIMAJOR_AXIS":"6717.085","TLE_LINE2":"2 51817  53.2169 173.3541 0008056 279.0659  80.9451 15.76999381 11659","GP_ID":"202559120","MEAN_ELEMENT_THEORY":"SGP4","EPHEMERIS_TYPE":"0","EPOCH":"2022-05-02T13:16:27.194592","MEAN_ANOMALY":"80.9451","LAUNCH_DATE":"2022-02-25","TLE_LINE1":"1 51817U 22017BB  22122.55309253 -.00019137  00000-0 -11150-3 0  9999","TIME_SYSTEM":"UTC","OBJECT_NAME":"STARLINK-3596","PERIAPSIS":"333.538","COUNTRY_CODE":"US","REF_FRAME":"TEME","CENTER_NAME":"EARTH","FILE":"3426306","ARG_OF_PERICENTER":"279.0659","MEAN_MOTION_DDOT":"0.0000000000000","ECCENTRICITY":"0.00080560","OBJECT_ID":"2022-017BB","CLASSIFICATION_TYPE":"U","BSTAR":"-0.00011150000000"},{"TLE_LINE1":"1 51852U 22022A   22122.91668981 -.00724817  00000-0 -44746-1 0  9993","TIME_SYSTEM":"UTC","OBJECT_NAME":"STARLINK-3542","PERIAPSIS":"528.796","CENTER_NAME":"EARTH","COUNTRY_CODE":"US","REF_FRAME":"TEME","FILE":"3426306","ARG_OF_PERICENTER":"46.3865","MEAN_MOTION_DDOT":"0.0000000000000","ECCENTRICITY":"0.00015400","OBJECT_ID":"2022-022A","CLASSIFICATION_TYPE":"U","BSTAR":"-0.04474600000000","RCS_SIZE":"LARGE","OBJECT_TYPE":"PAYLOAD","NORAD_CAT_ID":"51852","RA_OF_ASC_NODE":"214.3990","SITE":"AFETR","MEAN_MOTION_DOT":"-0.00724817","ELEMENT_SET_NO":"999","DECAY_DATE":null,"REV_AT_EPOCH":"363","INCLINATION":"53.2174","MEAN_MOTION":"15.12079817","APOAPSIS":"530.924","PERIOD":"95.233","SEMIMAJOR_AXIS":"6907.995","TLE_LINE2":"2 51852  53.2174 214.3990 0001540  46.3865 318.2695 15.12079817  3632","GP_ID":"202559529","MEAN_ELEMENT_THEORY":"SGP4","EPOCH":"2022-05-02T22:00:01.999584","EPHEMERIS_TYPE":"0","MEAN_ANOMALY":"318.2695","LAUNCH_DATE":"2022-03-03"},{"ARG_OF_PERICENTER":"42.8432","FILE":"3426306","BSTAR":"-0.04492900000000","CLASSIFICATION_TYPE":"U","ECCENTRICITY":"0.00016510","OBJECT_ID":"2022-022B","MEAN_MOTION_DDOT":"0.0000000000000","OBJECT_NAME":"STARLINK-3539","TIME_SYSTEM":"UTC","TLE_LINE1":"1 51853U 22022B   22122.91668981 -.00725172  00000-0 -44929-1 0  9992","COUNTRY_CODE":"US","REF_FRAME":"TEME","CENTER_NAME":"EARTH","PERIAPSIS":"529.108","TLE_LINE2":"2 51853  53.2173 214.3981 0001651  42.8432 302.7681 15.11952188  3639","GP_ID":"202558960","SEMIMAJOR_AXIS":"6908.384","PERIOD":"95.241","APOAPSIS":"531.390","LAUNCH_DATE":"2022-03-03","MEAN_ANOMALY":"302.7681","EPOCH":"2022-05-02T22:00:01.999584","EPHEMERIS_TYPE":"0","MEAN_ELEMENT_THEORY":"SGP4","RA_OF_ASC_NODE":"214.3981","NORAD_CAT_ID":"51853","OBJECT_TYPE":"PAYLOAD","RCS_SIZE":"LARGE","REV_AT_EPOCH":"363","DECAY_DATE":null,"ELEMENT_SET_NO":"999","MEAN_MOTION":"15.11952188","INCLINATION":"53.2173","SITE":"AFETR","MEAN_MOTION_DOT":"-0.00725172"},{"RA_OF_ASC_NODE":"214.3998","NORAD_CAT_ID":"51854","OBJECT_TYPE":"PAYLOAD","RCS_SIZE":"LARGE","DECAY_DATE":null,"ELEMENT_SET_NO":"999","REV_AT_EPOCH":"363","MEAN_MOTION":"15.12207464","INCLINATION":"53.2174","MEAN_MOTION_DOT":"-0.00724489","SITE":"AFETR","TLE_LINE2":"2 51854  53.2174 214.3998 0001477  49.9443 333.7181 15.12207464  3635","SEMIMAJOR_AXIS":"6907.607","GP_ID":"202559124","PERIOD":"95.225","APOAPSIS":"530.492","LAUNCH_DATE":"2022-03-03","MEAN_ANOMALY":"333.7181","EPHEMERIS_TYPE":"0","EPOCH":"2022-05-02T22:00:01.999584","MEAN_ELEMENT_THEORY":"SGP4","OBJECT_NAME":"STARLINK-3541","TIME_SYSTEM":"UTC","TLE_LINE1":"1 51854U 22022C   22122.91668981 -.00724489  00000-0 -44565-1 0  9999","COUNTRY_CODE":"US","REF_FRAME":"TEME","CENTER_NAME":"EARTH","PERIAPSIS":"528.451","ARG_OF_PERICENTER":"49.9443","FILE":"3426306","BSTAR":"-0.04456500000000","CLASSIFICATION_TYPE":"U","OBJECT_ID":"2022-022C","ECCENTRICITY":"0.00014770","MEAN_MOTION_DDOT":"0.0000000000000"}];
